FENGYUN 3A              
1 32958U 08026A   24027.44997689  .00000301  00000+0  16463-3 0  9990
2 32958  98.5872 338.8113 0009606 118.0184 242.1965 14.19003536811864
FENGYUN 2E              
1 33463U 08066A   24026.63705883 -.00000205  00000+0  00000+0 0  9999
2 33463   7.2254  61.3647 0001485 282.8360  97.3244  1.00273756 55342
NOAA 19                 
1 33591U 09005A   24027.46415838  .00000330  00000+0  20189-3 0  9997
2 33591  99.0695  81.6392 0013339 335.1679  24.8849 14.12915228771615
GOES 14                 
1 35491U 09033A   24026.66984939 -.00000064  00000+0  00000+0 0  9994
2 35491   0.0650 221.0699 0000804 125.2476 271.7337  1.00273168 53403
DMSP 5D-3 F18 (USA 210) 
1 35951U 09057A   24027.53550867  .00000497  00000+0  28447-3 0  9995
2 35951  98.7974   4.9287 0010542 205.5692 154.4960 14.13978951736340
EWS-G2 (GOES 15)        
1 36411U 10008A   24027.49144635  .00000040  00000+0  00000+0 0  9997
2 36411   0.0586 257.5936 0004949  15.7113  91.5881  1.00267192 50899
COMS 1                  
1 36744U 10032A   24027.43305407 -.00000341  00000+0  00000+0 0  9998
2 36744   2.5700  86.6139 0000982 220.5850 103.0583  1.00272792 49917
FENGYUN 3B              
1 37214U 10059A   24027.53268860  .00000185  00000+0  12032-3 0  9999
2 37214  99.0702  53.5478 0022942 131.4158 346.5235 14.14436284684227
SUOMI NPP               
1 37849U 11061A   24027.51000247  .00000215  00000+0  12280-3 0  9997
2 37849  98.7283 327.6371 0001010  60.6999 299.4278 14.19548735634764
FENGYUN 2F              
1 38049U 12002A   24026.64210615 -.00000357  00000+0  00000+0 0  9992
2 38049   5.2392  74.5453 0001495  29.7272   4.4228  1.00267915 44147
METEOSAT-10 (MSG-3)     
1 38552U 12035B   24026.34980010 -.00000004  00000+0  00000+0 0  9996
2 38552   2.6482  59.6500 0001238 241.4545 310.0917  1.00276230 42100
METOP-B                 
1 38771U 12049A   24027.48237258  .00000273  00000+0  14454-3 0  9998
2 38771  98.6494  87.7522 0001702  91.2498 268.8874 14.21461192589413
FENGYUN 3C              
1 39260U 13052A   24027.50836507  .00000201  00000+0  12235-3 0  9998
2 39260  98.4273  34.6433 0011460  21.5460 338.6195 14.16138845535276
METEOR-M 2              
1 40069U 14037A   24027.49320570  .00000284  00000+0  15059-3 0  9995
2 40069  98.4308  28.1158 0006690  56.7742 303.4076 14.20880138495501
HIMAWARI-8              
1 40267U 14060A   24027.53452631 -.00000271  00000+0  00000+0 0  9993
2 40267   0.0435 239.5059 0000941  49.0710 170.7889  1.00273939 34125
FENGYUN 2G              
1 40367U 14090A   24026.78289399 -.00000301  00000+0  00000+0 0  9996
2 40367   3.4250  83.1889 0000671 359.1218  64.7714  1.00266513 33296
METEOSAT-11 (MSG-4)     
1 40732U 15034A   24027.26614441  .00000065  00000+0  00000+0 0  9991
2 40732   1.0492  64.1602 0002498 201.9648 324.9368  1.00269467 31268
ELEKTRO-L 2             
1 41105U 15074A   24027.04658597 -.00000115  00000+0  00000+0 0  9993
2 41105   4.4783  81.1854 0003497 199.5955 207.3281  1.00271550 29771
HIMAWARI-9              
1 41836U 16064A   24027.53452631 -.00000271  00000+0  00000+0 0  9992
2 41836   0.0218  93.0355 0000807 224.6931 141.7860  1.00268554 26569
GOES 16                 
1 41866U 16071A   24027.46420823 -.00000244  00000+0  00000+0 0  9993
2 41866   0.0818 258.3530 0001290  76.0934 243.6681  1.00270766 26356
FENGYUN 4A              
1 41882U 16077A   24027.42835486 -.00000325  00000+0  00000+0 0  9998
2 41882   0.1000  68.3182 0005224 335.9400 340.6921  1.00269638 26245
CYGFM05                 
1 41884U 16078A   24027.51203250  .00010044  00000+0  40649-3 0  9994
2 41884  34.9545 115.7851 0012111 344.8099  15.2250 15.23860705394534
CYGFM04                 
1 41885U 16078B   24026.53311516  .00009883  00000+0  39086-3 0  9993
2 41885  34.9474 107.3036 0010744   1.6575 358.4174 15.24648129394368
CYGFM02                 
1 41886U 16078C   24027.49614599  .00010103  00000+0  39875-3 0  9990
2 41886  34.9558 103.7019 0011295 358.8968   1.1720 15.24705891394660
CYGFM01                 
1 41887U 16078D   24027.53376801  .00009876  00000+0  40279-3 0  9992
2 41887  34.9506 119.1405 0012784 343.1280  16.9008 15.23593614394493
CYGFM08                 
1 41888U 16078E   24027.50163318  .00009227  00000+0  36904-3 0  9997
2 41888  34.9478 108.7417 0011561 359.0463   1.0227 15.24275183394565
CYGFM07                 
1 41890U 16078G   24026.53215449  .00009966  00000+0  39310-3 0  9999
2 41890  34.9499 106.8206 0010300 358.9270   1.1421 15.24740045394370
CYGFM03                 
1 41891U 16078H   24027.47712576  .00010095  00000+0  39868-3 0  9990
2 41891  34.9533 101.9117 0009373 359.9930   0.0783 15.24703774394657
FENGYUN 3D              
1 43010U 17072A   24027.46824839  .00000251  00000+0  14103-3 0  9993
2 43010  98.8928 341.4437 0002194  47.1064 313.0295 14.19274427321312
NOAA 20                 
1 43013U 17073A   24027.47445815  .00000163  00000+0  98100-4 0  9993
2 43013  98.7362 327.5666 0000919 118.5261 241.6008 14.19538459320797
GOES 17                 
1 43226U 18022A   24026.61300618 -.00000089  00000+0  00000+0 0  9995
2 43226   0.0276 147.6227 0001852 135.9573 317.8052  1.00271958 21688
FENGYUN 2H              
1 43491U 18050A   24027.49501428 -.00000126  00000+0  00000+0 0  9991
2 43491   0.7754  88.3007 0000587 335.1963 320.3608  1.00271511 20778
METOP-C                 
1 43689U 18087A   24027.44922625  .00000272  00000+0  14420-3 0  9997
2 43689  98.7013  88.6233 0003511 119.2570 240.8958 14.21502279270980
GEO-KOMPSAT-2A          
1 43823U 18100A   24027.43305407 -.00000340  00000+0  00000+0 0  9997
2 43823   0.0147 142.6840 0000796 241.7973  25.8551  1.00271707 18925
METEOR-M2 2             
1 44387U 19038A   24027.48460469  .00000112  00000+0  68362-4 0  9995
2 44387  98.8086 356.2959 0001869  44.6530 315.4798 14.23846266237227
ARKTIKA-M 1             
1 47719U 21016A   24026.18874713  .00000129  00000+0  00000+0 0  9991
2 47719  63.1423 167.9406 6902254 269.0517  18.1133  2.00601252 21288
FENGYUN 3E              
1 49008U 21062A   24027.55166105  .00000051  00000+0  44678-4 0  9994
2 49008  98.7299  30.7495 0002623  84.0214 276.1261 14.19725125132892
GOES 18                 
1 51850U 22021A   24027.52827108  .00000101  00000+0  00000+0 0  9994
2 51850   0.0095 294.3481 0000653 326.1270 278.9816  1.00272991  7066
NOAA 21 (JPSS-2)        
1 54234U 22150A   24027.06811300  .00000222  00000+0  12600-3 0  9999
2 54234  98.7396 326.7273 0001249 103.8282 256.3033 14.19566281 62814
METEOSAT-12 (MTG-I1)    
1 54743U 22170C   24024.01507789 -.00000030  00000+0  00000+0 0  9996
2 54743   0.3900 356.6471 0001839 276.5793 211.4766  1.00272576  4202
TIANMU-1 03             
1 55973U 23039A   24027.50546037  .00011422  00000+0  48848-3 0  9995
2 55973  97.4492 178.8388 0011920 244.7089 115.2913 15.22933942 47278
TIANMU-1 04             
1 55974U 23039B   24027.48721389  .00011392  00000+0  48738-3 0  9992
2 55974  97.4414 178.5341 0008832 244.2000 115.8326 15.22949192 47262
TIANMU-1 05             
1 55975U 23039C   24027.07853078  .00010851  00000+0  46517-3 0  9991
2 55975  97.4463 178.3601 0004945 235.1542 124.9230 15.22916811 47194
TIANMU-1 06             
1 55976U 23039D   24027.45699320  .00010416  00000+0  44665-3 0  9991
2 55976  97.4475 178.8254 0004438 235.6301 124.4516 15.22921032 47252
METEOR-M2 3             
1 57166U 23091A   24027.45059476  .00000075  00000+0  52252-4 0  9996
2 57166  98.7351  83.2559 0004210 166.5709 193.5582 14.23868157 30453
TIANMU-1 07             
1 57399U 23101A   24027.46016673  .00006772  00000+0  36399-3 0  9992
2 57399  97.3844  88.6530 0003991 339.6323  20.4750 15.15195804 28952
TIANMU-1 08             
1 57400U 23101B   24027.42861964  .00006703  00000+0  36036-3 0  9994
2 57400  97.3835  88.5174 0006484 336.1871  23.9061 15.15183413 28943
TIANMU-1 09             
1 57401U 23101C   24027.47600290  .00006534  00000+0  35122-3 0  9990
2 57401  97.3789  88.4928 0006619 329.7087  30.3762 15.15194576 28958
TIANMU-1 10             
1 57402U 23101D   24027.50757572  .00006717  00000+0  36012-3 0  9993
2 57402  97.3869  88.6515 0009224 328.5085  31.5595 15.15263445 28951
FENGYUN 3F              
1 57490U 23111A   24027.51104150  .00000191  00000+0  11093-3 0  9992
2 57490  98.7881  97.8521 0001776 114.4867 245.6495 14.19760162 25168
TIANMU-1 11             
1 58645U 23205A   24027.53136110  .00005978  00000+0  33274-3 0  9995
2 58645  97.4183  56.2800 0012155 154.6763 205.5067 15.13944110  5075
TIANMU-1 12             
1 58646U 23205B   24027.46940598  .00006244  00000+0  34972-3 0  9994
2 58646  97.4169  56.2038 0011053 151.1821 209.0023 15.13714237  5050
TIANMU-1 13             
1 58647U 23205C   24027.47832700  .00006357  00000+0  36080-3 0  9998
2 58647  97.4199  56.2055 0011438 144.9297 215.2689 15.13231995  5059
TIANMU-1 14             
1 58648U 23205D   24027.47028256  .00006233  00000+0  34962-3 0  9992
2 58648  97.4124  56.1826 0011759 148.8510 211.3421 15.13655219  5050
TIANMU-1 19             
1 58660U 23208A   24027.46689638  .00008780  00000+0  49626-3 0  9997
2 58660  97.4004 143.7295 0012137 135.6417 224.5789 15.13260320  4726
TIANMU-1 20             
1 58661U 23208B   24027.52319239  .00007839  00000+0  43216-3 0  9995
2 58661  97.3928 143.7740 0011778 146.5801 213.6177 15.14191666  4732
TIANMU-1 21             
1 58662U 23208C   24027.52034614  .00008819  00000+0  48258-3 0  9997
2 58662  97.3974 143.7969 0010816 146.9938 213.1971 15.14428897  4730
TIANMU-1 22             
1 58663U 23208D   24027.51374503  .00008063  00000+0  43773-3 0  9999
2 58663  97.3989 143.8114 0011264 155.2061 204.9715 15.14738498  4733
